{
  "type": "FeatureCollection",
  "features": [
    {
      "type": "Feature",
      "properties": {
        "norad_id": 44873,
        "name": "CSG-1",
        "group": "resource",
        "lat": -35.811657818676956,
        "lon": -27.95599012592596,
        "alt_km": 629.4768632616979,
        "timestamp": "2025-12-02T07:10:08.767067+00:00",
        "meta_object_name": "CSG-1",
        "meta_object_id": "2019-092A",
        "meta_epoch": "2025-12-01T20:28:32.706048",
        "meta_mean_motion": 14.82170737,
        "meta_eccentricity": 0.0001381,
        "meta_inclination": 97.8806,
        "meta_ra_of_asc_node": 157.341,
        "meta_arg_of_pericenter": 83.7146,
        "meta_mean_anomaly": 276.4225,
        "meta_ephemeris_type": 0,
        "meta_classification_type": "U",
        "meta_norad_cat_id": 44873,
        "meta_element_set_no": 999,
        "meta_rev_at_epoch": 32224,
        "meta_bstar": 9.5911e-05,
        "meta_mean_motion_dot": 7.12e-06,
        "meta_mean_motion_ddot": 0,
        "tle_line1": "1 44873U 19092A   25335.85315632  .00000712  00000+0  95911-4 0  9996",
        "tle_line2": "2 44873  97.8806 157.3410 0001381  83.7146 276.4225 14.82170737322240"
      },
      "geometry": {
        "type": "Point",
        "coordinates": [
          -27.95599012592596,
          -35.811657818676956
        ]
      }
    },
    {
      "type": "Feature",
      "properties": {
        "norad_id": 46277,
        "name": "NEMO-HD",
        "group": "resource",
        "lat": -1.8853634104980623,
        "lon": 35.770993831625866,
        "alt_km": 448.94977286667563,
        "timestamp": "2025-12-02T07:10:08.767078+00:00",
        "meta_object_name": "NEMO-HD",
        "meta_object_id": "2020-061F",
        "meta_epoch": "2025-12-01T20:15:39.681792",
        "meta_mean_motion": 15.39981577,
        "meta_eccentricity": 0.000239,
        "meta_inclination": 97.2236,
        "meta_ra_of_asc_node": 35.0831,
        "meta_arg_of_pericenter": 70.3339,
        "meta_mean_anomaly": 289.8166,
        "meta_ephemeris_type": 0,
        "meta_classification_type": "U",
        "meta_norad_cat_id": 46277,
        "meta_element_set_no": 999,
        "meta_rev_at_epoch": 29156,
        "meta_bstar": 0.00030449,
        "meta_mean_motion_dot": 0.00012065,
        "meta_mean_motion_ddot": 0,
        "tle_line1": "1 46277U 20061F   25335.84420928  .00012065  00000+0  30449-3 0  9996",
        "tle_line2": "2 46277  97.2236  35.0831 0002390  70.3339 289.8166 15.39981577291564"
      },
      "geometry": {
        "type": "Point",
        "coordinates": [
          35.770993831625866,
          -1.8853634104980623
        ]
      }
    },
    {
      "type": "Feature",
      "properties": {
        "norad_id": 46984,
        "name": "SENTINEL-6A",
        "group": "resource",
        "lat": -15.170620905128228,
        "lon": 10.919358313020606,
        "alt_km": 1339.5961069224686,
        "timestamp": "2025-12-02T07:10:08.767088+00:00",
        "meta_object_name": "SENTINEL-6A",
        "meta_object_id": "2020-086A",
        "meta_epoch": "2025-12-01T20:46:35.761152",
        "meta_mean_motion": 12.80929979,
        "meta_eccentricity": 0.000773,
        "meta_inclination": 66.0388,
        "meta_ra_of_asc_node": 184.8937,
        "meta_arg_of_pericenter": 269.1242,
        "meta_mean_anomaly": 90.8887,
        "meta_ephemeris_type": 0,
        "meta_classification_type": "U",
        "meta_norad_cat_id": 46984,
        "meta_element_set_no": 999,
        "meta_rev_at_epoch": 23505,
        "meta_bstar": 0.00013495,
        "meta_mean_motion_dot": -3e-07,
        "meta_mean_motion_ddot": 0,
        "tle_line1": "1 46984U 20086A   25335.86569168 -.00000030  00000+0  13495-3 0  9992",
        "tle_line2": "2 46984  66.0388 184.8937 0007730 269.1242  90.8887 12.80929979235058"
      },
      "geometry": {
        "type": "Point",
        "coordinates": [
          10.919358313020606,
          -15.170620905128228
        ]
      }
    },
    {
      "type": "Feature",
      "properties": {
        "norad_id": 48079,
        "name": "GAOFEN-12 02",
        "group": "resource",
        "lat": 7.527724043696061,
        "lon": 151.41865480466993,
        "alt_km": 627.8245073126236,
        "timestamp": "2025-12-02T07:10:08.767099+00:00",
        "meta_object_name": "GAOFEN-12 02",
        "meta_object_id": "2021-026A",
        "meta_epoch": "2025-12-01T20:39:44.636256",
        "meta_mean_motion": 14.80653271,
        "meta_eccentricity": 0.0003196,
        "meta_inclination": 97.9848,
        "meta_ra_of_asc_node": 329.9202,
        "meta_arg_of_pericenter": 123.1137,
        "meta_mean_anomaly": 237.0382,
        "meta_ephemeris_type": 0,
        "meta_classification_type": "U",
        "meta_norad_cat_id": 48079,
        "meta_element_set_no": 999,
        "meta_rev_at_epoch": 25256,
        "meta_bstar": 8.5171e-05,
        "meta_mean_motion_dot": 6.01e-06,
        "meta_mean_motion_ddot": 0,
        "tle_line1": "1 48079U 21026A   25335.86093329  .00000601  00000+0  85171-4 0  9999",
        "tle_line2": "2 48079  97.9848 329.9202 0003196 123.1137 237.0382 14.80653271252561"
      },
      "geometry": {
        "type": "Point",
        "coordinates": [
          151.41865480466993,
          7.527724043696061
        ]
      }
    },
    {
      "type": "Feature",
      "properties": {
        "norad_id": 48268,
        "name": "PLEIADES NEO 3",
        "group": "resource",
        "lat": -21.412803178526172,
        "lon": -134.23018630031356,
        "alt_km": 629.6432823454152,
        "timestamp": "2025-12-02T07:10:08.767111+00:00",
        "meta_object_name": "PLEIADES NEO 3",
        "meta_object_id": "2021-034A",
        "meta_epoch": "2025-12-01T20:32:16.374912",
        "meta_mean_motion": 14.81675967,
        "meta_eccentricity": 0.0001238,
        "meta_inclination": 97.8948,
        "meta_ra_of_asc_node": 48.4526,
        "meta_arg_of_pericenter": 95.0099,
        "meta_mean_anomaly": 265.1255,
        "meta_ephemeris_type": 0,
        "meta_classification_type": "U",
        "meta_norad_cat_id": 48268,
        "meta_element_set_no": 999,
        "meta_rev_at_epoch": 24843,
        "meta_bstar": -8.5221e-07,
        "meta_mean_motion_dot": -5.9e-07,
        "meta_mean_motion_ddot": 0,
        "tle_line1": "1 48268U 21034A   25335.85574508 -.00000059  00000+0 -85221-6 0  9997",
        "tle_line2": "2 48268  97.8948  48.4526 0001238  95.0099 265.1255 14.81675967248431"
      },
      "geometry": {
        "type": "Point",
        "coordinates": [
          -134.23018630031356,
          -21.412803178526172
        ]
      }
    },
    {
      "type": "Feature",
      "properties": {
        "norad_id": 49070,
        "name": "PLEIADES NEO 4",
        "group": "resource",
        "lat": 21.21384453695686,
        "lon": 45.79742381349464,
        "alt_km": 623.6304957076363,
        "timestamp": "2025-12-02T07:10:08.767121+00:00",
        "meta_object_name": "PLEIADES NEO 4",
        "meta_object_id": "2021-073E",
        "meta_epoch": "2025-12-01T19:43:38.054208",
        "meta_mean_motion": 14.81672559,
        "meta_eccentricity": 0.0001327,
        "meta_inclination": 97.8949,
        "meta_ra_of_asc_node": 48.4151,
        "meta_arg_of_pericenter": 92.6256,
        "meta_mean_anomaly": 267.5109,
        "meta_ephemeris_type": 0,
        "meta_classification_type": "U",
        "meta_norad_cat_id": 49070,
        "meta_element_set_no": 999,
        "meta_rev_at_epoch": 23214,
        "meta_bstar": -1.3131e-06,
        "meta_mean_motion_dot": -6.2e-07,
        "meta_mean_motion_ddot": 0,
        "tle_line1": "1 49070U 21073E   25335.82196822 -.00000062  00000+0 -13131-5 0  9992",
        "tle_line2": "2 49070  97.8949  48.4151 0001327  92.6256 267.5109 14.81672559232144"
      },
      "geometry": {
        "type": "Point",
        "coordinates": [
          45.79742381349464,
          21.21384453695686
        ]
      }
    },
    {
      "type": "Feature",
      "properties": {
        "norad_id": 49260,
        "name": "LANDSAT 9",
        "group": "resource",
        "lat": -58.779809135380845,
        "lon": -149.22131669817716,
        "alt_km": 710.2943200485752,
        "timestamp": "2025-12-02T07:10:08.767132+00:00",
        "meta_object_name": "LANDSAT 9",
        "meta_object_id": "2021-088A",
        "meta_epoch": "2025-12-01T18:32:09.157344",
        "meta_mean_motion": 14.57111374,
        "meta_eccentricity": 0.0001103,
        "meta_inclination": 98.2107,
        "meta_ra_of_asc_node": 44.0416,
        "meta_arg_of_pericenter": 92.4228,
        "meta_mean_anomaly": 267.7097,
        "meta_ephemeris_type": 0,
        "meta_classification_type": "U",
        "meta_norad_cat_id": 49260,
        "meta_element_set_no": 999,
        "meta_rev_at_epoch": 22225,
        "meta_bstar": 0.00012047,
        "meta_mean_motion_dot": 4.98e-06,
        "meta_mean_motion_ddot": 0,
        "tle_line1": "1 49260U 21088A   25335.77232821  .00000498  00000+0  12047-3 0  9997",
        "tle_line2": "2 49260  98.2107  44.0416 0001103  92.4228 267.7097 14.57111374222256"
      },
      "geometry": {
        "type": "Point",
        "coordinates": [
          -149.22131669817716,
          -58.779809135380845
        ]
      }
    }
  ]
}